FENGYUN 2G              
1 40367U 14090A   24190.11368769 -.00000303  00000+0  00000+0 0  9996
2 40367   3.8432  81.3043 0003373 116.5985 228.8673  1.00261561 34928
METEOSAT-11 (MSG-4)     
1 40732U 15034A   24190.26734010  .00000058  00000+0  00000+0 0  9999
2 40732   1.4350  69.5723 0001080 162.7243 159.8732  1.00269363 32906
ELEKTRO-L 2             
1 41105U 15074A   24189.40394573 -.00000123  00000+0  00000+0 0  9992
2 41105   4.8927  79.2343 0001217 149.4550 188.0665  1.00270815 31383
INSAT-3DR               
1 41752U 16054A   24189.34982653 -.00000081  00000+0  00000+0 0  9997
2 41752   0.0599  91.0972 0010550 175.2963 219.3266  1.00271542 28704
HIMAWARI-9              
1 41836U 16064A   24190.02410551 -.00000278  00000+0  00000+0 0  9999
2 41836   0.0176 143.3095 0000869 316.5734 336.0028  1.00273267 28195
GOES 16                 
1 41866U 16071A   24190.46516418 -.00000251  00000+0  00000+0 0  9998
2 41866   0.0767 249.1482 0000209 200.4314 289.5636  1.00272762 27995
FENGYUN 4A              
1 41882U 16077A   24190.49736255 -.00000201  00000+0  00000+0 0  9993
2 41882   0.5112  85.9397 0008015 344.2633 122.4990  1.00267632 27872
CYGFM05                 
1 41884U 16078A   24190.32612398  .00009077  00000+0  32993-3 0  9998
2 41884  34.9558 167.2032 0010702  23.8662 336.2548 15.27454758419417
CYGFM04                 
1 41885U 16078B   24189.32129633  .00008511  00000+0  30132-3 0  9997
2 41885  34.9387 157.4410 0007978  37.3989 322.7281 15.28347546419255
CYGFM02                 
1 41886U 16078C   24189.34178958  .00008818  00000+0  30881-3 0  9995
2 41886  34.9497 159.5236 0010673  27.6909 332.4374 15.28675611419345
CYGFM01                 
1 41887U 16078D   24189.33064251  .00007979  00000+0  29214-3 0  9990
2 41887  34.9454 177.3810 0010564   3.1066 356.9713 15.27239610419091
CYGFM08                 
1 41888U 16078E   24189.27064092  .00008510  00000+0  30275-3 0  9998
2 41888  34.9465 165.7523 0011413  27.3092 332.8221 15.28159565419264
CYGFM07                 
1 41890U 16078G   24189.89684770  .00009350  00000+0  32942-3 0  9996
2 41890  34.9471 153.1708 0007750  41.4389 318.6913 15.28491727419501
CYGFM03                 
1 41891U 16078H   24190.32488097  .00009430  00000+0  33295-3 0  9992
2 41891  34.9495 151.6668 0008603  30.9802 329.1420 15.28416824419557
FENGYUN 3D              
1 43010U 17072A   24190.52485380  .00000137  00000+0  86752-4 0  9998
2 43010  98.9115 145.3060 0000448 309.6076  50.5060 14.19367259344441
NOAA 20 (JPSS-1)        
1 43013U 17073A   24190.48713054  .00000125  00000+0  79759-4 0  9995
2 43013  98.7064 128.0526 0001834 125.5798 234.5550 14.19540482343927
GOES 17                 
1 43226U 18022A   24190.50800374 -.00000093  00000+0  00000+0 0  9994
2 43226   0.0172 139.1439 0000947  18.2121 207.7439  1.00271865 23337
FENGYUN 2H              
1 43491U 18050A   24189.93261418 -.00000129  00000+0  00000+0 0  9994
2 43491   1.1958  87.1386 0001568  52.5195 201.4696  1.00267963 22407
METOP-C                 
1 43689U 18087A   24190.46911610  .00000200  00000+0  11157-3 0  9997
2 43689  98.7225 249.4962 0002635  52.7925 307.3493 14.21486230294147
GEO-KOMPSAT-2A          
1 43823U 18100A   24190.50813427 -.00000346  00000+0  00000+0 0  9998
2 43823   0.0376 127.2219 0002068 330.3018 140.6084  1.00271510 20558
METEOR-M2 2             
1 44387U 19038A   24190.51238136  .00000061  00000+0  46320-4 0  9997
2 44387  98.8277 159.8212 0000158 215.3812 144.7355 14.23899657260420
ARKTIKA-M 1             
1 47719U 21016A   24189.19071815  .00000098  00000+0  00000+0 0  9999
2 47719  63.1384 149.4796 6948546 268.6622  17.8840  2.00606285 24541
FENGYUN 3E              
1 49008U 21062A   24190.56011188  .00000028  00000+0  33786-4 0  9998
2 49008  98.7320 191.5521 0001472  16.7747 343.3478 14.19762890156025
GOES 18                 
1 51850U 22021A   24190.49028471  .00000095  00000+0  00000+0 0  9999
2 51850   0.0210 209.0988 0000173 279.0254 198.2808  1.00270878  8692
NOAA 21 (JPSS-2)        
1 54234U 22150A   24190.52279881  .00000127  00000+0  81026-4 0  9996
2 54234  98.7518 128.1670 0001968  84.3576 275.7824 14.19535353 86008
METEOSAT-12 (MTG-I1)    
1 54743U 22170C   24189.83601222 -.00000011  00000+0  00000+0 0  9994
2 54743   0.5246  41.2375 0001923  64.4042 121.1840  1.00269067  5855
TIANMU-1 03             
1 55973U 23039A   24190.54596827  .00008381  00000+0  35974-3 0  9998
2 55973  97.4710 341.0416 0006299 104.3096 255.8840 15.22945262 72107
TIANMU-1 04             
1 55974U 23039B   24190.52858586  .00008260  00000+0  35342-3 0  9995
2 55974  97.4631 340.5650 0007400 101.3580 258.8488 15.23048462 72090
TIANMU-1 05             
1 55975U 23039C   24190.51305643  .00008575  00000+0  36800-3 0  9995
2 55975  97.4680 340.8885 0005850 119.2563 240.9259 15.22943696 72083
TIANMU-1 06             
1 55976U 23039D   24190.49492711  .00008971  00000+0  38244-3 0  9990
2 55976  97.4693 340.9960 0006401 118.0155 242.1730 15.23154807 72087
METEOR-M2 3             
1 57166U 23091A   24190.47730849  .00000042  00000+0  37557-4 0  9994
2 57166  98.7117 244.9591 0005070  74.2605 285.9132 14.23903158 53655
TIANMU-1 07             
1 57399U 23101A   24190.46296602  .00005691  00000+0  28751-3 0  9997
2 57399  97.3616 247.0213 0006705 111.6493 248.5455 15.17441153 53653
TIANMU-1 08             
1 57400U 23101B   24190.49812721  .00006360  00000+0  32064-3 0  9995
2 57400  97.3605 246.9257 0008904 116.6453 243.5693 15.17454340 53655
TIANMU-1 09             
1 57401U 23101C   24190.48125179  .00005945  00000+0  30000-3 0  9995
2 57401  97.3560 246.7390 0009368 113.1795 247.0427 15.17442735 53657
TIANMU-1 10             
1 57402U 23101D   24190.51365320  .00006596  00000+0  33248-3 0  9994
2 57402  97.3640 247.0674 0011493 112.3906 247.8546 15.17423553 53650
FENGYUN 3F              
1 57490U 23111A   24190.51341219  .00000133  00000+0  83742-4 0  9999
2 57490  98.7691 259.4480 0001678  67.8562 292.2792 14.19834477 48299
ARKTIKA-M 2             
1 58584U 23198A   24189.42132011  .00000103  00000+0  00000+0 0  9993
2 58584  63.2538 233.2254 6978674 269.8111  17.2657  2.00613234  4075
TIANMU-1 11             
1 58645U 23205A   24190.51554598  .00004837  00000+0  25952-3 0  9995
2 58645  97.4016 215.0568 0010301 339.0697  21.0113 15.15369839 29746
TIANMU-1 12             
1 58646U 23205B   24190.53051349  .00005392  00000+0  28862-3 0  9994
2 58646  97.4002 214.9999 0008610 331.9598  28.1169 15.15416318 29732
TIANMU-1 13             
1 58647U 23205C   24190.56377695  .00005525  00000+0  29634-3 0  9999
2 58647  97.4031 215.0333 0008130 312.7333  47.3214 15.15335596 29732
TIANMU-1 14             
1 58648U 23205D   24190.54770219  .00005854  00000+0  31363-3 0  9994
2 58648  97.3956 214.8614 0008895 316.3488  43.7040 15.15344198 29731
TIANMU-1 19             
1 58660U 23208A   24190.55471686  .00005885  00000+0  31498-3 0  9991
2 58660  97.4137 302.4166 0007722 292.8602  67.1815 15.15389505 29402
TIANMU-1 20             
1 58661U 23208B   24190.54709373  .00005955  00000+0  31157-3 0  9998
2 58661  97.4064 302.3881 0008609 304.3679  55.6740 15.16179811 29411
TIANMU-1 21             
1 58662U 23208C   24190.52740208  .00007290  00000+0  37088-3 0  9992
2 58662  97.4104 302.6668 0008282 304.3566  55.6883 15.17096169 29429
TIANMU-1 22             
1 58663U 23208D   24190.57152076  .00005946  00000+0  31861-3 0  9997
2 58663  97.4123 302.5040 0004055 324.5669  35.5294 15.15360929 29414
TIANMU-1 15             
1 58700U 24004A   24190.54633081  .00005023  00000+0  26990-3 0  9994
2 58700  97.4623  11.2580 0009311 347.2905  12.8091 15.15315421 28003
TIANMU-1 16             
1 58701U 24004B   24190.52873369  .00005616  00000+0  30099-3 0  9991
2 58701  97.4550  11.1014 0009448 353.1192   6.9909 15.15351018 28003
TIANMU-1 17             
1 58702U 24004C   24190.51400381  .00005890  00000+0  31585-3 0  9996
2 58702  97.4594  11.2277 0007199 349.9999  10.1088 15.15325904 27990
TIANMU-1 18             
1 58703U 24004D   24190.49685282  .00005202  00000+0  27922-3 0  9996
2 58703  97.4610  11.2877 0006174 341.1514  18.9489 15.15351732 27994
INSAT-3DS               
1 58990U 24033A   24171.63670715 -.00000142  00000+0  00000+0 0  9999
2 58990   0.0159 349.8168 0010402 105.1251 125.6022  1.00268037   992
METEOR-M2 4             
1 59051U 24039A   24190.52169135  .00000052  00000+0  42910-4 0  9992
2 59051  98.5985 151.8910 0008203  66.5903 293.6137 14.22237035 18529
STARLINK-31978          
1 60016U 24111A   24190.58334491  .00032244  00000+0  81313-3 0  9998
2 60016  53.1605  31.2418 0001604  77.9047  28.1732 15.39602795  5587
STARLINK-31987          
1 60017U 24111B   24190.55175523 -.00008059  00000+0 -13704-3 0  9993
2 60017  53.1606  31.2522 0000980 174.9797 185.1222 15.49301363  5644
STARLINK-31984          
1 60018U 24111C   24190.55139079  .00019593  00000+0  35922-3 0  9999
2 60018  53.1608  31.2497 0000697  76.4511 283.6575 15.49326808  5537
STARLINK-31986          
1 60019U 24111D   24190.55103309  .00004738  00000+0  93140-4 0  9999
2 60019  53.1602  31.2469 0000704 104.9716 255.1371 15.49323980  5697
STARLINK-31883          
1 60020U 24111E   24190.58334491  .00082601  00000+0  20553-2 0  9993
2 60020  53.1606  31.1905 0001958 114.6529  17.1383 15.39580893  5639
STARLINK-31967          
1 60021U 24111F   24189.91667824  .00025975  00000+0  47379-3 0  9995
2 60021  53.1606  34.2743 0000862  97.5428 326.4432 15.49293062  5613
STARLINK-31982          
1 60022U 24111G   24190.58334491 -.00395779  00000+0 -10317-1 0  9996
2 60022  53.1608  31.1427 0001191  78.2822  77.3351 15.39882580  5699
